[{"OBJECT_NAME":"NINGXIA-1 9","OBJECT_ID":"2021-064D","EPOCH":"2026-03-09T22:22:33.329280","MEAN_MOTION":14.08541534,"ECCENTRICITY":0.00078366,"INCLINATION":45.0035,"RA_OF_ASC_NODE":315.3923,"ARG_OF_PERICENTER":140.8679,"MEAN_ANOMALY":219.2725,"EPHEMERIS_TYPE":0,"CLASSIFICATION_TYPE":"U","NORAD_CAT_ID":49021,"ELEMENT_SET_NO":999,"REV_AT_EPOCH":24023,"BSTAR":1.224568e-5,"MEAN_MOTION_DOT":-1.11e-6,"MEAN_MOTION_DDOT":0},{"OBJECT_NAME":"FENGYUN 1C DEB","OBJECT_ID":"1999-025HR","EPOCH":"2026-03-09T22:38:35.538432","MEAN_MOTION":13.85178797,"ECCENTRICITY":0.01387127,"INCLINATION":98.4908,"RA_OF_ASC_NODE":220.1282,"ARG_OF_PERICENTER":104.721,"MEAN_ANOMALY":18.6936,"EPHEMERIS_TYPE":0,"CLASSIFICATION_TYPE":"U","NORAD_CAT_ID":29919,"ELEMENT_SET_NO":999,"REV_AT_EPOCH":96742,"BSTAR":0.00023877448,"MEAN_MOTION_DOT":2.55e-6,"MEAN_MOTION_DDOT":0}]
